OTTER                   
1 62623U 25009Q   26068.72300813  .00012198  00000+0  45151-3 0  9990
2 62623  97.4065 151.3812 0003573 310.7710  49.3219 15.27809545 63722
STARLINK-34070          
1 63913U 25095Z   26068.33378323  .00030089  00000+0  10985-2 0  9991
2 63913  42.9995 178.1983 0001031 242.7740 117.3007 15.27579271 47725
